{"type": "FeatureCollection", "features": [ {"type": "Feature", "properties": {"norad_id": 37834, "name": "INTELSAT 18 (IS-18)", "group": "intelsat", "lat": -0.025463475236364275, "lon": -163.718103801264, "alt_km": 35786.230615062355, "timestamp": "2025-12-22T18:58:53.088624+00:00", "meta": {"OBJECT_NAME": "INTELSAT 18 (IS-18)", "OBJECT_ID": "2011-056A", "EPOCH": "2025-12-22T05:12:38.633184", "MEAN_MOTION": 1.00271277, "ECCENTRICITY": 0.00016984, "INCLINATION": 0.0291, "RA_OF_ASC_NODE": 282.7933, "ARG_OF_PERICENTER": 3.9825, "MEAN_ANOMALY": 62.4078, "EPHEMERIS_TYPE": 0, "CLASSIFICATION_TYPE": "U", "NORAD_CAT_ID": 37834, "ELEMENT_SET_NO": 999, "REV_AT_EPOCH": 5203, "BSTAR": 0, "MEAN_MOTION_DOT": 7.5e-07, "MEAN_MOTION_DDOT": 0}, "tle": {"line1": "1 37834U 11056A   25356.21711381  .00000075  00000+0  00000+0 0  9993", "line2": "2 37834   0.0291 282.7933 0001698   3.9825  62.4078  1.00271277 52038"}}, "geometry": {"type": "Point", "coordinates": [-163.718103801264, -0.025463475236364275]}}, {"type": "Feature", "properties": {"norad_id": 38098, "name": "INTELSAT 22 (IS-22)", "group": "intelsat", "lat": 0.04349589292435778, "lon": 88.39674464220653, "alt_km": 35793.8945643665, "timestamp": "2025-12-22T18:58:53.088637+00:00", "meta": {"OBJECT_NAME": "INTELSAT 22 (IS-22)", "OBJECT_ID": "2012-011A", "EPOCH": "2025-12-22T04:31:38.775072", "MEAN_MOTION": 1.00270454, "ECCENTRICITY": 0.0001904, "INCLINATION": 0.0244, "RA_OF_ASC_NODE": 32.5601, "ARG_OF_PERICENTER": 258.3925, "MEAN_ANOMALY": 300.0424, "EPHEMERIS_TYPE": 0, "CLASSIFICATION_TYPE": "U", "NORAD_CAT_ID": 38098, "ELEMENT_SET_NO": 999, "REV_AT_EPOCH": 541, "BSTAR": 0, "MEAN_MOTION_DOT": 0, "MEAN_MOTION_DDOT": 0}, "tle": {"line1": "1 38098U 12011A   25356.18864323  .00000000  00000+0  00000+0 0  9997", "line2": "2 38098   0.0244  32.5601 0001904 258.3925 300.0424  1.00270454  5411"}}, "geometry": {"type": "Point", "coordinates": [88.39674464220653, 0.04349589292435778]}}, {"type": "Feature", "properties": {"norad_id": 38356, "name": "INTELSAT 19 (IS-19)", "group": "intelsat", "lat": -0.014919184152575376, "lon": -177.726464458807, "alt_km": 35784.96676672527, "timestamp": "2025-12-22T18:58:53.088649+00:00", "meta": {"OBJECT_NAME": "INTELSAT 19 (IS-19)", "OBJECT_ID": "2012-030A", "EPOCH": "2025-12-22T05:23:45.261888", "MEAN_MOTION": 1.00272077, "ECCENTRICITY": 0.00028225, "INCLINATION": 0.0192, "RA_OF_ASC_NODE": 312.1721, "ARG_OF_PERICENTER": 315.1172, "MEAN_ANOMALY": 70.6825, "EPHEMERIS_TYPE": 0, "CLASSIFICATION_TYPE": "U", "NORAD_CAT_ID": 38356, "ELEMENT_SET_NO": 999, "REV_AT_EPOCH": 4867, "BSTAR": 0, "MEAN_MOTION_DOT": -3.4e-07, "MEAN_MOTION_DDOT": 0}, "tle": {"line1": "1 38356U 12030A   25356.22482942 -.00000034  00000+0  00000+0 0  9991", "line2": "2 38356   0.0192 312.1721 0002822 315.1172  70.6825  1.00272077 48679"}}, "geometry": {"type": "Point", "coordinates": [-177.726464458807, -0.014919184152575376]}}, {"type": "Feature", "properties": {"norad_id": 38740, "name": "INTELSAT 20 (IS-20)", "group": "intelsat", "lat": 0.023155464485432875, "lon": 84.75160075358943, "alt_km": 35788.14158513751, "timestamp": "2025-12-22T18:58:53.088661+00:00", "meta": {"OBJECT_NAME": "INTELSAT 20 (IS-20)", "OBJECT_ID": "2012-043A", "EPOCH": "2025-12-22T04:31:38.775072", "MEAN_MOTION": 1.00271399, "ECCENTRICITY": 0.00034618, "INCLINATION": 0.0093, "RA_OF_ASC_NODE": 51.5157, "ARG_OF_PERICENTER": 131.0499, "MEAN_ANOMALY": 44.8296, "EPHEMERIS_TYPE": 0, "CLASSIFICATION_TYPE": "U", "NORAD_CAT_ID": 38740, "ELEMENT_SET_NO": 999, "REV_AT_EPOCH": 4897, "BSTAR": 0, "MEAN_MOTION_DOT": -2e-08, "MEAN_MOTION_DDOT": 0}, "tle": {"line1": "1 38740U 12043A   25356.18864323 -.00000002  00000+0  00000+0 0  9999", "line2": "2 38740   0.0093  51.5157 0003461 131.0499  44.8296  1.00271399 48974"}}, "geometry": {"type": "Point", "coordinates": [84.75160075358943, 0.023155464485432875]}}, {"type": "Feature", "properties": {"norad_id": 38749, "name": "INTELSAT 21 (IS-21)", "group": "intelsat", "lat": -0.005086142319581071, "lon": -41.679831974669185, "alt_km": 35782.33562221578, "timestamp": "2025-12-22T18:58:53.088673+00:00", "meta": {"OBJECT_NAME": "INTELSAT 21 (IS-21)", "OBJECT_ID": "2012-045A", "EPOCH": "2025-12-22T05:24:38.582784", "MEAN_MOTION": 1.00271513, "ECCENTRICITY": 0.00015339, "INCLINATION": 0.0209, "RA_OF_ASC_NODE": 295.0895, "ARG_OF_PERICENTER": 329.906, "MEAN_ANOMALY": 209.2006, "EPHEMERIS_TYPE": 0, "CLASSIFICATION_TYPE": "U", "NORAD_CAT_ID": 38749, "ELEMENT_SET_NO": 999, "REV_AT_EPOCH": 4875, "BSTAR": 0, "MEAN_MOTION_DOT": -2.63e-06, "MEAN_MOTION_DDOT": 0}, "tle": {"line1": "1 38749U 12045A   25356.22544656 -.00000263  00000+0  00000+0 0  9998", "line2": "2 38749   0.0209 295.0895 0001533 329.9060 209.2006  1.00271513 48756"}}, "geometry": {"type": "Point", "coordinates": [-41.679831974669185, -0.005086142319581071]}}, {"type": "Feature", "properties": {"norad_id": 38867, "name": "INTELSAT 23 (IS-23)", "group": "intelsat", "lat": -0.030633853424620786, "lon": -36.682390212779175, "alt_km": 35784.255633225126, "timestamp": "2025-12-22T18:58:53.088685+00:00", "meta": {"OBJECT_NAME": "INTELSAT 23 (IS-23)", "OBJECT_ID": "2012-057A", "EPOCH": "2025-12-22T05:16:38.623008", "MEAN_MOTION": 1.00268901, "ECCENTRICITY": 6.907e-05, "INCLINATION": 0.0197, "RA_OF_ASC_NODE": 73.3146, "ARG_OF_PERICENTER": 228.2232, "MEAN_ANOMALY": 175.6669, "EPHEMERIS_TYPE": 0, "CLASSIFICATION_TYPE": "U", "NORAD_CAT_ID": 38867, "ELEMENT_SET_NO": 999, "REV_AT_EPOCH": 4818, "BSTAR": 0, "MEAN_MOTION_DOT": -2.63e-06, "MEAN_MOTION_DDOT": 0}, "tle": {"line1": "1 38867U 12057A   25356.21989147 -.00000263  00000+0  00000+0 0  9999", "line2": "2 38867   0.0197  73.3146 0000690 228.2232 175.6669  1.00268901 48189"}}, "geometry": {"type": "Point", "coordinates": [-36.682390212779175, -0.030633853424620786]}}, {"type": "Feature", "properties": {"norad_id": 39360, "name": "FM-6", "group": "intelsat", "lat": -0.019613474853588823, "lon": -99.8277124148511, "alt_km": 35785.1143983304, "timestamp": "2025-12-22T18:58:53.088697+00:00", "meta": {"OBJECT_NAME": "FM-6", "OBJECT_ID": "2013-058A", "EPOCH": "2025-12-22T01:45:29.872224", "MEAN_MOTION": 1.00269758, "ECCENTRICITY": 0.00029051, "INCLINATION": 0.0111, "RA_OF_ASC_NODE": 60.7431, "ARG_OF_PERICENTER": 116.5751, "MEAN_ANOMALY": 183.7792, "EPHEMERIS_TYPE": 0, "CLASSIFICATION_TYPE": "U", "NORAD_CAT_ID": 39360, "ELEMENT_SET_NO": 999, "REV_AT_EPOCH": 4429, "BSTAR": 0, "MEAN_MOTION_DOT": 5e-08, "MEAN_MOTION_DDOT": 0}, "tle": {"line1": "1 39360U 13058A   25356.07326241  .00000005  00000+0  00000+0 0  9997", "line2": "2 39360   0.0111  60.7431 0002905 116.5751 183.7792  1.00269758 44293"}}, "geometry": {"type": "Point", "coordinates": [-99.8277124148511, -0.019613474853588823]}}, {"type": "Feature", "properties": {"norad_id": 40271, "name": "INTELSAT 30 (IS-30)", "group": "intelsat", "lat": -0.03640612723081693, "lon": -78.77906600852161, "alt_km": 35794.703260186434, "timestamp": "2025-12-22T18:58:53.088709+00:00", "meta": {"OBJECT_NAME": "INTELSAT 30 (IS-30)", "OBJECT_ID": "2014-062A", "EPOCH": "2025-12-22T00:43:42.863808", "MEAN_MOTION": 1.00262497, "ECCENTRICITY": 0.00015639, "INCLINATION": 0.0115, "RA_OF_ASC_NODE": 23.9271, "ARG_OF_PERICENTER": 51.8075, "MEAN_ANOMALY": 290.9843, "EPHEMERIS_TYPE": 0, "CLASSIFICATION_TYPE": "U", "NORAD_CAT_ID": 40271, "ELEMENT_SET_NO": 999, "REV_AT_EPOCH": 501, "BSTAR": 0, "MEAN_MOTION_DOT": -1.28e-06, "MEAN_MOTION_DDOT": 0}, "tle": {"line1": "1 40271U 14062A   25356.03035722 -.00000128  00000+0  00000+0 0  9990", "line2": "2 40271   0.0115  23.9271 0001563  51.8075 290.9843  1.00262497  5010"}}, "geometry": {"type": "Point", "coordinates": [-78.77906600852161, -0.03640612723081693]}}, {"type": "Feature", "properties": {"norad_id": 40333, "name": "DIRECTV 14", "group": "intelsat", "lat": -0.014637724995391678, "lon": -82.91768951135174, "alt_km": 35787.38942240397, "timestamp": "2025-12-22T18:58:53.088720+00:00", "meta": {"OBJECT_NAME": "DIRECTV 14", "OBJECT_ID": "2014-078B", "EPOCH": "2025-12-22T06:12:07.890624", "MEAN_MOTION": 1.00270466, "ECCENTRICITY": 2.611e-05, "INCLINATION": 0.0027, "RA_OF_ASC_NODE": 68.5668, "ARG_OF_PERICENTER": 62.0079, "MEAN_ANOMALY": 314.3024, "EPHEMERIS_TYPE": 0, "CLASSIFICATION_TYPE": "U", "NORAD_CAT_ID": 40333, "ELEMENT_SET_NO": 999, "REV_AT_EPOCH": 4027, "BSTAR": 0, "MEAN_MOTION_DOT": -1.03e-06, "MEAN_MOTION_DDOT": 0}, "tle": {"line1": "1 40333U 14078B   25356.25842466 -.00000103  00000+0  00000+0 0  9994", "line2": "2 40333   0.0027  68.5668 0000261  62.0079 314.3024  1.00270466 40272"}}, "geometry": {"type": "Point", "coordinates": [-82.91768951135174, -0.014637724995391678]}}, {"type": "Feature", "properties": {"norad_id": 40663, "name": "DIRECTV 15", "group": "intelsat", "lat": -0.04759591693264316, "lon": -86.57500703384476, "alt_km": 35787.816245645736, "timestamp": "2025-12-22T18:58:53.088732+00:00", "meta": {"OBJECT_NAME": "DIRECTV 15", "OBJECT_ID": "2015-026A", "EPOCH": "2025-12-22T05:49:42.774816", "MEAN_MOTION": 1.00269251, "ECCENTRICITY": 4.087e-05, "INCLINATION": 0.0237, "RA_OF_ASC_NODE": 21.2324, "ARG_OF_PERICENTER": 126.4087, "MEAN_ANOMALY": 287.959, "EPHEMERIS_TYPE": 0, "CLASSIFICATION_TYPE": "U", "NORAD_CAT_ID": 40663, "ELEMENT_SET_NO": 999, "REV_AT_EPOCH": 3868, "BSTAR": 0, "MEAN_MOTION_DOT": 0, "MEAN_MOTION_DDOT": 0}, "tle": {"line1": "1 40663U 15026A   25356.24285619  .00000000  00000+0  00000+0 0  9999", "line2": "2 40663   0.0237  21.2324 0000408 126.4087 287.9590  1.00269251 38688"}}, "geometry": {"type": "Point", "coordinates": [-86.57500703384476, -0.04759591693264316]}}]}